#aV2008  2  9  0  0   .00000000      96 DD+AD WGS84 FIT  NGA
## 1465 518400.00000000   900.00000000 54505  .0000000000000
+   31     1  2  3  4  5  6  8  9 10 11 12 13 14 15 16 17 18
+         19 20 21 22 23 24 25 26 27 28 29 30 31 32  0  0  0
+          0  0  0  0  0  0  0  0  0  0  0  0  0  0  0  0  0
+          0  0  0  0  0  0  0  0  0  0  0  0  0  0  0  0  0
+          0  0  0  0  0  0  0  0  0  0  0  0  0  0  0  0  0
++         0  0  0  0  0  0  0  0  0  0  0  0  0  0  0  0  0
++         0  0  0  0  0  0  0  0  0  0  0  0  0  0  0  0  0
++         0  0  0  0  0  0  0  0  0  0  0  0  0  0  0  0  0
++         0  0  0  0  0  0  0  0  0  0  0  0  0  0  0  0  0
++         0  0  0  0  0  0  0  0  0  0  0  0  0  0  0  0  0
%c cc cc ccc ccc cccc cccc cccc cccc ccccc ccccc ccccc ccccc
%c cc cc ccc ccc cccc cccc cccc cccc ccccc ccccc ccccc ccccc
%f  0.0000000  0.000000000  0.00000000000  0.000000000000000
%f  0.0000000  0.000000000  0.00000000000  0.000000000000000
%i    0    0    0    0      0      0      0      0         0
%i    0    0    0    0      0      0      0      0         0
/*      NGA, ST. LOUIS,MO.                                  
/*   EPHEMERIS COMPUTED FROM  3 DAYS OF DATA                
/* CCCCCCCCCCCCCCCCCCCCCCCCCCCCCCCCCCCCCCCCCCCCCCCCCCCCCCCCC
/* CCCCCCCCCCCCCCCCCCCCCCCCCCCCCCCCCCCCCCCCCCCCCCCCCCCCCCCCC
*  2008  2  9 19 15   .00000000                                                 
P  1 -16435.163043  15313.914037 -13893.687138    184.646358                    
V  1   5647.642118 -17152.814156 -25257.646230       .025281                    
P  2  19546.098493 -12660.925609  12278.939376    173.063067                    
V  2  16327.799059     75.052506 -25859.943147       .030404                    
P  3 -10809.863548  23099.151890   6495.444104    184.944499                    
V  3  -1825.021782  -9415.796683  29677.206167       .053088                    
P  4  26082.594065  -5668.268228   1845.909655     -6.108714                    
V  4   2902.829889   2617.344526 -31005.247267      -.064449                    
P  5 -15284.899588 -21109.598409  -5757.584140    682.405517                    
V  5   7152.541911   2694.201156 -30106.472990       .149553                    
P  6 -14153.698030  -7594.513343  21338.658893     13.693845                    
V  6   8527.873433 -25386.758928  -3451.066564       .187008                    
P  8  26119.274020    723.506850   5905.725459   -140.358024                    
V  8  -7232.280779   2626.957959  30745.467366      -.015822                    
P  9  -2589.872655 -15101.750509 -22311.721055    109.709410                    
V  9  26255.773603  -5518.101704    876.487851       .018189                    
P 10   5887.136161 -15457.608466  20575.661619   -240.855281                    
V 10  17326.438750  20063.639225  10379.466032      -.127618                    
P 11   6686.107875  15386.043895 -20746.441748     27.034130                    
V 11 -24655.449194   9251.677409   -764.755146      -.000661                    
P 12 -10463.052867 -22572.641164  -9314.001527   -356.163411                    
V 12   9528.442078   7584.022874 -28718.546164      -.007995                    
P 13   9599.066680  12701.048715  21159.949849    239.214617                    
V 13 -10806.670013  24768.869839  -9886.271681       .021973                    
P 14 -16247.963960   4777.798330 -20333.292509   -298.937148                    
V 14   8768.056812 -24488.825708 -12784.033507       .029894                    
P 15   6018.589561 -25561.639664  -3962.619000    -75.686176                    
V 15   4386.839377  -3831.164287  31153.399839      -.025562                    
P 16  -9617.428231  12002.386776  21710.440191    132.791476                    
V 16 -17567.413127 -21029.154067   4034.984776       .001165                    
P 17  16635.752967  -3934.231314 -20264.851954     42.827798                    
V 17  -8036.618240  24571.719462 -11504.452426      -.006769                    
P 18 -19367.953641 -17110.294107  -6705.261293   -205.689653                    
V 18  -3133.581585  -8541.090129  29736.054971       .029937                    
P 19  -7475.394431  24952.737935  -4627.862594     20.145153                    
V 19  -5183.428255   4280.588000  31058.976696       .014815                    
P 20  12423.633880  22367.549457  -7333.850650    120.893804                    
V 20  -8228.629421  -5000.654788 -29594.063711      -.007689                    
P 21 -22106.054222  -6890.907243  13685.350951     72.016143                    
V 21  16420.773851  -4770.110198  23809.857703      -.007685                    
P 22 -19402.714496  -4797.880175 -17355.744423    208.290192                    
V 22 -12064.474433 -18935.846288  18517.285736       .004466                    
P 23    959.378317  23035.059158  12912.559626    332.852839                    
V 23  -7751.937342  14809.226260 -25940.478679       .028316                    
P 24  -9678.817390 -13642.104610  20741.332155     69.248370                    
V 24  25716.332262  -4222.299932   9584.490163       .029571                    
P 25  15235.908774   9965.642391  19643.840761    509.880802                    
V 25 -23001.277671   7656.897780  14393.269823       .049994                    
P 26   8820.785781 -24681.355570  -1919.585621    178.916755                    
V 26   2777.587131   -909.532714  32720.529270       .101890                    
P 27  21122.459779   6059.817123  15709.385318    166.703944                    
V 27 -17790.499590   5857.160850  22477.209675       .026472                    
P 28  19986.802791   7805.646373 -15507.241114    -14.912988                    
V 28  11179.096878  16944.215315  22067.745278      -.004918                    
P 29  -8190.121291 -16415.872996  19331.464803    -62.829544                    
V 29   9918.337728 -22215.645904 -14725.263855       .059068                    
P 30 -18195.986378 -19400.726403    597.861580     63.192299                    
V 30   1550.836071  -2963.785424 -31398.066972       .014438                    
P 31 -25171.893135   7590.095471   4323.811370     -8.576385                    
V 31  -5573.617385  -1537.806127 -31179.958471      -.013728                    
P 32 -15341.463523   3168.784461 -20998.158485    224.164973                    
V 32 -15352.158128 -23029.665702   7745.862937       .094785                    
EOF
